[{"OBJECT_NAME":"SHIJIAN-6 01B (SJ-6 01B)","OBJECT_ID":"2004-035B","EPOCH":"2026-03-09T23:36:14.904576","MEAN_MOTION":15.05644225,"ECCENTRICITY":0.00063174,"INCLINATION":97.6149,"RA_OF_ASC_NODE":88.1348,"ARG_OF_PERICENTER":111.8734,"MEAN_ANOMALY":248.3165,"EPHEMERIS_TYPE":0,"CLASSIFICATION_TYPE":"U","NORAD_CAT_ID":28414,"ELEMENT_SET_NO":999,"REV_AT_EPOCH":17189,"BSTAR":0.00017015082,"MEAN_MOTION_DOT":2.395e-5,"MEAN_MOTION_DDOT":0},{"OBJECT_NAME":"STARLINK-30310","OBJECT_ID":"2023-131B","EPOCH":"2026-03-09T07:45:15.069312","MEAN_MOTION":15.02528051,"ECCENTRICITY":0.00016235,"INCLINATION":43.0004,"RA_OF_ASC_NODE":173.3794,"ARG_OF_PERICENTER":268.2309,"MEAN_ANOMALY":91.8347,"EPHEMERIS_TYPE":0,"CLASSIFICATION_TYPE":"U","NORAD_CAT_ID":57733,"ELEMENT_SET_NO":999,"REV_AT_EPOCH":13988,"BSTAR":-1.1696686e-5,"MEAN_MOTION_DOT":-3.62e-6,"MEAN_MOTION_DDOT":0}]
